ONEWEB-0228             
1 48780U 21045P   23321.11487277  .00000164  00000+0  40221-3 0  9999
2 48780  87.8984  86.9291 0001397  97.3384 262.7905 13.15550341121465
